[{"OBJECT_NAME":"STARLINK-35618","OBJECT_ID":"2025-259B","EPOCH":"2026-03-09T21:52:18.590592","MEAN_MOTION":15.2759128,"ECCENTRICITY":0.0001807,"INCLINATION":43.0012,"RA_OF_ASC_NODE":273.2348,"ARG_OF_PERICENTER":265.3083,"MEAN_ANOMALY":94.7563,"EPHEMERIS_TYPE":0,"CLASSIFICATION_TYPE":"U","NORAD_CAT_ID":66423,"ELEMENT_SET_NO":999,"REV_AT_EPOCH":1952,"BSTAR":0.0008495005,"MEAN_MOTION_DOT":0.00023196,"MEAN_MOTION_DDOT":0},{"OBJECT_NAME":"TRANSPORTER-1 OBJECT AA","OBJECT_ID":"2021-006AA","EPOCH":"2026-03-09T22:58:14.761920","MEAN_MOTION":15.29982294,"ECCENTRICITY":0.00086604,"INCLINATION":97.2381,"RA_OF_ASC_NODE":112.457,"ARG_OF_PERICENTER":185.709,"MEAN_ANOMALY":174.4054,"EPHEMERIS_TYPE":0,"CLASSIFICATION_TYPE":"U","NORAD_CAT_ID":47437,"ELEMENT_SET_NO":999,"REV_AT_EPOCH":28414,"BSTAR":0.0002197941,"MEAN_MOTION_DOT":6.312e-5,"MEAN_MOTION_DDOT":0}]
